STARLINK-37998          
1 69679U 26145C   26188.48558554  .00194401  00000+0  12604-2 0  9997
2 69679  97.2852  34.9520 0001195  56.2788 303.8592 15.75452053  1960
STARLINK-37994          
1 69680U 26145D   26188.42348117  .00201893  00000+0  13097-2 0  9996
2 69680  97.2860  34.8840 0001081  59.7315 300.4057 15.75419164  1957
STARLINK-37992          
1 69681U 26145E   26188.42314269  .00183951  00000+0  11980-2 0  9991
2 69681  97.2848  34.8834 0001710  66.0334 294.1110 15.75377994  1951
STARLINK-37997          
1 69682U 26145F   26188.42243482  .00158602  00000+0  10369-2 0  9995
2 69682  97.2848  34.8839 0001597  96.4645 263.6802 15.75359830  1950
STARLINK-37990          
1 69683U 26145G   26188.42278113  .00185016  00000+0  12039-2 0  9990
2 69683  97.2841  34.8832 0001285  90.6496 269.4917 15.75394447  1955
STARLINK-37951          
1 69684U 26145H   26188.42171912  .00208391  00000+0  13513-2 0  9990
2 69684  97.2851  34.8852 0001039  98.6982 261.4401 15.75408794  1955
STARLINK-37957          
1 69685U 26145J   26188.42066636  .00177669  00000+0  11577-2 0  9998
2 69685  97.2842  34.8863 0001446  90.2743 269.8688 15.75383484  1950
STARLINK-37968          
1 69686U 26145K   26188.41466824  .00146459  00000+0  95919-3 0  9997
2 69686  97.2852  34.8960 0000808 110.4431 249.6921 15.75354898  1953
STARLINK-37977          
1 69687U 26145L   26188.41394703  .00230560  00000+0  14882-2 0  9990
2 69687  97.2857  34.8969 0000758 110.6882 249.4465 15.75453100  1951
STARLINK-37908          
1 69688U 26145M   26188.50003472 -.00006134  00000+0 -40315-4 0  9993
2 69688  97.2853  34.9940 0000926  85.0700  54.6586 15.75175543  3199
STARLINK-37979          
1 69689U 26145N   26188.50003472 -.00033430  00000+0 -22408-3 0  9995
2 69689  97.2852  34.9946 0001643  83.2131  58.5047 15.75194636  3199
STARLINK-37940          
1 69690U 26145P   26188.60104977  .00212277  00000+0  13826-2 0  9999
2 69690  97.2849  35.1021 0002585 117.7918 242.3610 15.75295194  1981
STARLINK-37961          
1 69691U 26145Q   26188.50003472 -.00039575  00000+0 -26557-3 0  9993
2 69691  97.2853  35.0045 0001417  86.2379  79.4749 15.75199720  3191
STARLINK-37787          
1 69692U 26145R   26188.50003472 -.00024183  00000+0 -16173-3 0  9996
2 69692  97.2850  35.0100 0001431  75.3812 102.3367 15.75187570  3190
STARLINK-37962          
1 69693U 26145S   26188.50003472 -.00029201  00000+0 -19557-3 0  9992
2 69693  97.2853  35.0144 0001562  94.8948  92.8212 15.75189903  3197
STARLINK-37953          
1 69694U 26145T   26188.50003472 -.00039185  00000+0 -26293-3 0  9990
2 69694  97.2854  35.0074 0001541  95.8514  75.8612 15.75199903  3194
STARLINK-37926          
1 69695U 26145U   26188.50003472 -.00015119  00000+0 -10070-3 0  9998
2 69695  97.2851  35.0097 0001571 108.0398  67.6808 15.75181305  3190
STARLINK-37959          
1 69696U 26145V   26188.50003472 -.00026701  00000+0 -17870-3 0  9993
2 69696  97.2852  35.0113 0001403  98.1708  83.5434 15.75189911  3192
STARLINK-37976          
1 69697U 26145W   26188.50003472 -.00021178  00000+0 -14150-3 0  9995
2 69697  97.2853  35.0183 0001398  93.8918 103.8258 15.75185093  3196
STARLINK-37912          
1 69698U 26145X   26188.50003472  .00039684  00000+0  26611-3 0  9990
2 69698  97.2854  35.0212 0001301  71.7502 131.9492 15.75154075  3197
STARLINK-37974          
1 69699U 26145Y   26188.50003472 -.00036402  00000+0 -24417-3 0  9990
2 69699  97.2856  35.0230 0001435  91.9442 115.7715 15.75194685  3194
STARLINK-37955          
1 69700U 26145Z   26188.50003472 -.00033051  00000+0 -22157-3 0  9999
2 69700  97.2856  35.0296 0001083  92.6416 129.0732 15.75190470  3192
STRIX-8                 
1 69701U 26146A   26188.58395058  .00003368  00000+0  25039-3 0  9991
2 69701  41.9897  55.2547 0008442 333.0559  26.9829 15.04391105  1632
ELECTRON R/B            
1 69702U 26146B   26187.97128270  .00304972  34275-4  86599-3 0  9993
2 69702  42.0771  53.0818 0191201 322.7502  36.0216 15.68721633  1615
ELECTRON KICK STAGE R/B 
1 69703U 26146C   26188.11562752  .00003147  00000+0  23168-3 0  9995
2 69703  41.9880  57.7989 0010263 331.1247  28.9011 15.04901226  1568
STARLINK-38055          
1 69704U 26147A   26188.50003472  .00053302  00000+0  27750-3 0  9998
2 69704  97.2840 224.4401 0001280  95.9807 208.7432 15.80800912  2501
STARLINK-37898          
1 69705U 26147B   26188.50003472  .00040467  00000+0  21115-3 0  9996
2 69705  97.2839 224.4423 0000994  94.3154 215.0969 15.80803986  2503
STARLINK-37970          
1 69706U 26147C   26188.50003472  .00042463  00000+0  22148-3 0  9992
2 69706  97.2840 224.4438 0001617 101.3496 212.3359 15.80801864  2509
STARLINK-37975          
1 69707U 26147D   26188.50003472  .00031362  00000+0  16393-3 0  9994
2 69707  97.2841 224.4461 0000885  92.7775 225.1781 15.80810311  2504
STARLINK-37972          
1 69708U 26147E   26188.50003472  .00046500  00000+0  24231-3 0  9995
2 69708  97.2840 224.4478 0000688  94.7139 227.5150 15.80807294  2501
