OBJECT_NAME,OBJECT_ID,EPOCH,MEAN_MOTION,ECCENTRICITY,INCLINATION,RA_OF_ASC_NODE,ARG_OF_PERICENTER,MEAN_ANOMALY,EPHEMERIS_TYPE,CLASSIFICATION_TYPE,NORAD_CAT_ID,ELEMENT_SET_NO,REV_AT_EPOCH,BSTAR,MEAN_MOTION_DOT,MEAN_MOTION_DDOT
STARLINK-37998,2026-145C,2026-07-07T11:39:14.590656,15.75452053,.00011956,97.2852,34.9520,56.2788,303.8592,0,U,69679,999,196,.12604074E-2,.194401E-2,0
STARLINK-37994,2026-145D,2026-07-07T10:09:48.773088,15.75419164,.00010811,97.2860,34.8840,59.7315,300.4057,0,U,69680,999,195,.13096597E-2,.201893E-2,0
STARLINK-37992,2026-145E,2026-07-07T10:09:19.528416,15.75377994,.000171,97.2848,34.8834,66.0334,294.1110,0,U,69681,999,195,.11979896E-2,.183951E-2,0
STARLINK-37997,2026-145F,2026-07-07T10:08:18.368448,15.75359830,.00015975,97.2848,34.8839,96.4645,263.6802,0,U,69682,999,195,.10369281E-2,.158602E-2,0
STARLINK-37990,2026-145G,2026-07-07T10:08:48.289632,15.75394447,.00012857,97.2841,34.8832,90.6496,269.4917,0,U,69683,999,195,.12039245E-2,.185016E-2,0
STARLINK-37951,2026-145H,2026-07-07T10:07:16.531968,15.75408794,.00010399,97.2851,34.8852,98.6982,261.4401,0,U,69684,999,195,.13513487E-2,.208391E-2,0
STARLINK-37957,2026-145J,2026-07-07T10:05:45.573504,15.75383484,.00014466,97.2842,34.8863,90.2743,269.8688,0,U,69685,999,195,.11576972E-2,.177669E-2,0
STARLINK-37968,2026-145K,2026-07-07T09:57:07.335936,15.75354898,.00008085,97.2852,34.8960,110.4431,249.6921,0,U,69686,999,195,.95919374E-3,.146459E-2,0
STARLINK-37977,2026-145L,2026-07-07T09:56:05.023392,15.75453100,.00007587,97.2857,34.8969,110.6882,249.4465,0,U,69687,999,195,.14882437E-2,.23056E-2,0
STARLINK-37908,2026-145M,2026-07-07T12:00:02.999808,15.75175543,.0000926,97.2853,34.9940,85.0700,54.6586,0,U,69688,999,319,-.40314606E-4,-.6134E-4,0
STARLINK-37979,2026-145N,2026-07-07T12:00:02.999808,15.75194636,.00016432,97.2852,34.9946,83.2131,58.5047,0,U,69689,999,319,-.22407777E-3,-.3343E-3,0
STARLINK-37940,2026-145P,2026-07-07T14:25:30.700128,15.75295194,.00025853,97.2849,35.1021,117.7918,242.3610,0,U,69690,999,198,.13825913E-2,.212277E-2,0
STARLINK-37961,2026-145Q,2026-07-07T12:00:02.999808,15.75199720,.0001417,97.2853,35.0045,86.2379,79.4749,0,U,69691,999,319,-.26556897E-3,-.39575E-3,0
STARLINK-37787,2026-145R,2026-07-07T12:00:02.999808,15.75187570,.00014312,97.2850,35.0100,75.3812,102.3367,0,U,69692,999,319,-.16173395E-3,-.24183E-3,0
STARLINK-37962,2026-145S,2026-07-07T12:00:02.999808,15.75189903,.00015629,97.2853,35.0144,94.8948,92.8212,0,U,69693,999,319,-.19556634E-3,-.29201E-3,0
STARLINK-37953,2026-145T,2026-07-07T12:00:02.999808,15.75199903,.00015418,97.2854,35.0074,95.8514,75.8612,0,U,69694,999,319,-.26292867E-3,-.39185E-3,0
STARLINK-37926,2026-145U,2026-07-07T12:00:02.999808,15.75181305,.00015712,97.2851,35.0097,108.0398,67.6808,0,U,69695,999,319,-.10070489E-3,-.15119E-3,0
STARLINK-37959,2026-145V,2026-07-07T12:00:02.999808,15.75189911,.00014037,97.2852,35.0113,98.1708,83.5434,0,U,69696,999,319,-.17870086E-3,-.26701E-3,0
STARLINK-37976,2026-145W,2026-07-07T12:00:02.999808,15.75185093,.00013982,97.2853,35.0183,93.8918,103.8258,0,U,69697,999,319,-.14149633E-3,-.21178E-3,0
STARLINK-37912,2026-145X,2026-07-07T12:00:02.999808,15.75154075,.00013011,97.2854,35.0212,71.7502,131.9492,0,U,69698,999,319,.26610578E-3,.39684E-3,0
STARLINK-37974,2026-145Y,2026-07-07T12:00:02.999808,15.75194685,.00014359,97.2856,35.0230,91.9442,115.7715,0,U,69699,999,319,-.2441687E-3,-.36402E-3,0
STARLINK-37955,2026-145Z,2026-07-07T12:00:02.999808,15.75190470,.00010834,97.2856,35.0296,92.6416,129.0732,0,U,69700,999,319,-.22157107E-3,-.33051E-3,0
STRIX-8,2026-146A,2026-07-07T14:00:53.330112,15.04391105,.00084429,41.9897,55.2547,333.0559,26.9829,0,U,69701,999,163,.25039264E-3,.3368E-4,0
ELECTRON R/B,2026-146B,2026-07-06T23:18:38.825280,15.68721633,.01912012,42.0771,53.0818,322.7502,36.0216,0,U,69702,999,161,.86598967E-3,.304972E-2,.34275359E-4
ELECTRON KICK STAGE R/B,2026-146C,2026-07-07T02:46:30.217728,15.04901226,.00102634,41.9880,57.7989,331.1247,28.9011,0,U,69703,999,156,.23168496E-3,.3147E-4,0
STARLINK-38055,2026-147A,2026-07-07T12:00:02.999808,15.80800912,.00012806,97.2840,224.4401,95.9807,208.7432,0,U,69704,999,250,.27750426E-3,.53302E-3,0
STARLINK-37898,2026-147B,2026-07-07T12:00:02.999808,15.80803986,.00009941,97.2839,224.4423,94.3154,215.0969,0,U,69705,999,250,.21114507E-3,.40467E-3,0
STARLINK-37970,2026-147C,2026-07-07T12:00:02.999808,15.80801864,.00016178,97.2840,224.4438,101.3496,212.3359,0,U,69706,999,250,.22148326E-3,.42463E-3,0
STARLINK-37975,2026-147D,2026-07-07T12:00:02.999808,15.80810311,.00008854,97.2841,224.4461,92.7775,225.1781,0,U,69707,999,250,.16393031E-3,.31362E-3,0
STARLINK-37972,2026-147E,2026-07-07T12:00:02.999808,15.80807294,.00006889,97.2840,224.4478,94.7139,227.5150,0,U,69708,999,250,.24231187E-3,.465E-3,0
